{"type": "FeatureCollection", "features": [{"type": "Feature", "properties": {"norad_id": 66549, "name": "SHIJIAN-28 (SJ-28)", "group": "last-30-days", "lat": 0.6773562935622168, "lon": -77.2664261304737, "alt_km": 35790.25814794536, "timestamp": "2025-12-27T04:40:44.216256+00:00", "meta": {"OBJECT_NAME": "SHIJIAN-28 (SJ-28)", "OBJECT_ID": "2025-277A", "EPOCH": "2025-12-25T13:29:07.948320", "MEAN_MOTION": 1.0026485, "ECCENTRICITY": 9.97e-05, "INCLINATION": 4.9871, "RA_OF_ASC_NODE": 274.7549, "ARG_OF_PERICENTER": 127.1328, "MEAN_ANOMALY": 11.4336, "EPHEMERIS_TYPE": 0, "CLASSIFICATION_TYPE": "U", "NORAD_CAT_ID": 66549, "ELEMENT_SET_NO": 999, "REV_AT_EPOCH": 41, "BSTAR": 0, "MEAN_MOTION_DOT": -3.37e-06, "MEAN_MOTION_DDOT": 0}, "tle": {"line1": "1 66549U 25277A   25359.56189755 -.00000337  00000+0  00000+0 0  9995", "line2": "2 66549   4.9871 274.7549 0000997 127.1328  11.4336  1.00264850   417"}}, "geometry": {"type": "Point", "coordinates": [-77.2664261304737, 0.6773562935622168]}}, {"type": "Feature", "properties": {"norad_id": 66550, "name": "CZ-7A R/B", "group": "last-30-days", "lat": 10.698224051364036, "lon": 33.53022012929887, "alt_km": 2672.18006152187, "timestamp": "2025-12-27T04:40:44.216305+00:00", "meta": {"OBJECT_NAME": "CZ-7A R/B", "OBJECT_ID": "2025-277B", "EPOCH": "2025-12-26T04:09:27.198144", "MEAN_MOTION": 3.54037207, "ECCENTRICITY": 0.64281773, "INCLINATION": 14.3386, "RA_OF_ASC_NODE": 261.8831, "ARG_OF_PERICENTER": 204.159, "MEAN_ANOMALY": 102.8537, "EPHEMERIS_TYPE": 0, "CLASSIFICATION_TYPE": "U", "NORAD_CAT_ID": 66550, "ELEMENT_SET_NO": 999, "REV_AT_EPOCH": 76, "BSTAR": 0.0031720269, "MEAN_MOTION_DOT": 0.04976202, "MEAN_MOTION_DDOT": -2.1169e-07}, "tle": {"line1": "1 66550U 25277B   25360.17323146  .04976202 -21169-6  31720-2 0  9999", "line2": "2 66550  14.3386 261.8831 6428177 204.1590 102.8537  3.54037207   764"}}, "geometry": {"type": "Point", "coordinates": [33.53022012929887, 10.698224051364036]}}, {"type": "Feature", "properties": {"norad_id": 66554, "name": "GLOBAL-33", "group": "last-30-days", "lat": -33.19914526055226, "lon": -73.0752408546005, "alt_km": 474.5531157574069, "timestamp": "2025-12-27T04:40:44.216333+00:00", "meta": {"OBJECT_NAME": "GLOBAL-33", "OBJECT_ID": "2025-267A", "EPOCH": "2025-12-26T22:39:31.202496", "MEAN_MOTION": 15.31813416, "ECCENTRICITY": 0.00050879, "INCLINATION": 42.0212, "RA_OF_ASC_NODE": 334.9853, "ARG_OF_PERICENTER": 190.0574, "MEAN_ANOMALY": 170.0163, "EPHEMERIS_TYPE": 0, "CLASSIFICATION_TYPE": "U", "NORAD_CAT_ID": 66554, "ELEMENT_SET_NO": 999, "REV_AT_EPOCH": 558, "BSTAR": 0.00053894927, "MEAN_MOTION_DOT": 0.00016705, "MEAN_MOTION_DDOT": 0}, "tle": {"line1": "1 66554U 25267A   25360.94411114  .00016705  00000+0  53895-3 0  9990", "line2": "2 66554  42.0212 334.9853 0005087 190.0574 170.0163 15.31813416  5589"}}, "geometry": {"type": "Point", "coordinates": [-73.0752408546005, -33.19914526055226]}}, {"type": "Feature", "properties": {"norad_id": 66557, "name": "STARLINK-35699", "group": "last-30-days", "lat": 24.81556378093463, "lon": -172.83187195190948, "alt_km": 469.0344210675812, "timestamp": "2025-12-27T04:40:44.216347+00:00", "meta": {"OBJECT_NAME": "STARLINK-35699", "OBJECT_ID": "2025-268A", "EPOCH": "2025-12-27T00:00:02.999808", "MEAN_MOTION": 15.32077124, "ECCENTRICITY": 0.00013284, "INCLINATION": 43.0008, "RA_OF_ASC_NODE": 38.0247, "ARG_OF_PERICENTER": 282.124, "MEAN_ANOMALY": 223.7728, "EPHEMERIS_TYPE": 0, "CLASSIFICATION_TYPE": "U", "NORAD_CAT_ID": 66557, "ELEMENT_SET_NO": 999, "REV_AT_EPOCH": 602, "BSTAR": -0.069968167, "MEAN_MOTION_DOT": -0.02001974, "MEAN_MOTION_DDOT": 0}, "tle": {"line1": "1 66557U 25268A   25361.00003472 -.02001974  00000+0 -69968-1 0  9998", "line2": "2 66557  43.0008  38.0247 0001328 282.1240 223.7728 15.32077124  6024"}}, "geometry": {"type": "Point", "coordinates": [-172.83187195190948, 24.81556378093463]}}, {"type": "Feature", "properties": {"norad_id": 66558, "name": "STARLINK-35695", "group": "last-30-days", "lat": 13.140706116368188, "lon": -157.63601144504074, "alt_km": 468.1707646030345, "timestamp": "2025-12-27T04:40:44.216360+00:00", "meta": {"OBJECT_NAME": "STARLINK-35695", "OBJECT_ID": "2025-268B", "EPOCH": "2025-12-27T00:00:02.999808", "MEAN_MOTION": 15.32914282, "ECCENTRICITY": 0.00012985, "INCLINATION": 43.0002, "RA_OF_ASC_NODE": 37.9822, "ARG_OF_PERICENTER": 284.8342, "MEAN_ANOMALY": 238.9794, "EPHEMERIS_TYPE": 0, "CLASSIFICATION_TYPE": "U", "NORAD_CAT_ID": 66558, "ELEMENT_SET_NO": 999, "REV_AT_EPOCH": 602, "BSTAR": -0.06819479, "MEAN_MOTION_DOT": -0.0200354, "MEAN_MOTION_DDOT": 0}, "tle": {"line1": "1 66558U 25268B   25361.00003472 -.02003540  00000+0 -68195-1 0  9991", "line2": "2 66558  43.0002  37.9822 0001298 284.8342 238.9794 15.32914282  6020"}}, "geometry": {"type": "Point", "coordinates": [-157.63601144504074, 13.140706116368188]}}, {"type": "Feature", "properties": {"norad_id": 66559, "name": "STARLINK-35419", "group": "last-30-days", "lat": -40.37215532490917, "lon": -77.51313313651521, "alt_km": 457.09396590164397, "timestamp": "2025-12-27T04:40:44.216371+00:00", "meta": {"OBJECT_NAME": "STARLINK-35419", "OBJECT_ID": "2025-268C", "EPOCH": "2025-12-27T00:00:02.999808", "MEAN_MOTION": 15.38059887, "ECCENTRICITY": 8.637e-05, "INCLINATION": 43.0008, "RA_OF_ASC_NODE": 37.769, "ARG_OF_PERICENTER": 279.5865, "MEAN_ANOMALY": 331.9613, "EPHEMERIS_TYPE": 0, "CLASSIFICATION_TYPE": "U", "NORAD_CAT_ID": 66559, "ELEMENT_SET_NO": 999, "REV_AT_EPOCH": 607, "BSTAR": -0.058693297, "MEAN_MOTION_DOT": -0.01999803, "MEAN_MOTION_DDOT": 0}, "tle": {"line1": "1 66559U 25268C   25361.00003472 -.01999803  00000+0 -58693-1 0  9999", "line2": "2 66559  43.0008  37.7690 0000863 279.5865 331.9613 15.38059887  6072"}}, "geometry": {"type": "Point", "coordinates": [-77.51313313651521, -40.37215532490917]}}, {"type": "Feature", "properties": {"norad_id": 66560, "name": "STARLINK-35411", "group": "last-30-days", "lat": -42.433236480295704, "lon": -64.55096701147669, "alt_km": 455.50986226477653, "timestamp": "2025-12-27T04:40:44.216382+00:00", "meta": {"OBJECT_NAME": "STARLINK-35411", "OBJECT_ID": "2025-268D", "EPOCH": "2025-12-27T00:00:02.999808", "MEAN_MOTION": 15.38585096, "ECCENTRICITY": 9.012e-05, "INCLINATION": 43.0003, "RA_OF_ASC_NODE": 37.7455, "ARG_OF_PERICENTER": 272.5624, "MEAN_ANOMALY": 348.5719, "EPHEMERIS_TYPE": 0, "CLASSIFICATION_TYPE": "U", "NORAD_CAT_ID": 66560, "ELEMENT_SET_NO": 999, "REV_AT_EPOCH": 607, "BSTAR": -0.057267384, "MEAN_MOTION_DOT": -0.01986911, "MEAN_MOTION_DDOT": 0}, "tle": {"line1": "1 66560U 25268D   25361.00003472 -.01986911  00000+0 -57267-1 0  9993", "line2": "2 66560  43.0003  37.7455 0000901 272.5624 348.5719 15.38585096  6074"}}, "geometry": {"type": "Point", "coordinates": [-64.55096701147669, -42.433236480295704]}}, {"type": "Feature", "properties": {"norad_id": 66561, "name": "STARLINK-35305", "group": "last-30-days", "lat": -39.9955963394598, "lon": -27.63844144011855, "alt_km": 450.39549732456635, "timestamp": "2025-12-27T04:40:44.216396+00:00", "meta": {"OBJECT_NAME": "STARLINK-35305", "OBJECT_ID": "2025-268E", "EPOCH": "2025-12-27T00:00:02.999808", "MEAN_MOTION": 15.4025387, "ECCENTRICITY": 0.00010166, "INCLINATION": 43.0008, "RA_OF_ASC_NODE": 37.6806, "ARG_OF_PERICENTER": 268.7547, "MEAN_ANOMALY": 18.9446, "EPHEMERIS_TYPE": 0, "CLASSIFICATION_TYPE": "U", "NORAD_CAT_ID": 66561, "ELEMENT_SET_NO": 999, "REV_AT_EPOCH": 596, "BSTAR": -0.053795553, "MEAN_MOTION_DOT": -0.01974418, "MEAN_MOTION_DDOT": 0}, "tle": {"line1": "1 66561U 25268E   25361.00003472 -.01974418  00000+0 -53796-1 0  9996", "line2": "2 66561  43.0008  37.6806 0001016 268.7547  18.9446 15.40253870  5965"}}, "geometry": {"type": "Point", "coordinates": [-27.63844144011855, -39.9955963394598]}}, {"type": "Feature", "properties": {"norad_id": 66562, "name": "STARLINK-35579", "group": "last-30-days", "lat": -42.69635146281311, "lon": -45.34561129237795, "alt_km": 453.01517063048504, "timestamp": "2025-12-27T04:40:44.216407+00:00", "meta": {"OBJECT_NAME": "STARLINK-35579", "OBJECT_ID": "2025-268F", "EPOCH": "2025-12-27T00:00:02.999808", "MEAN_MOTION": 15.39390124, "ECCENTRICITY": 0.00010242, "INCLINATION": 43.0004, "RA_OF_ASC_NODE": 37.7117, "ARG_OF_PERICENTER": 259.8627, "MEAN_ANOMALY": 14.8586, "EPHEMERIS_TYPE": 0, "CLASSIFICATION_TYPE": "U", "NORAD_CAT_ID": 66562, "ELEMENT_SET_NO": 999, "REV_AT_EPOCH": 602, "BSTAR": -0.054700877, "MEAN_MOTION_DOT": -0.01953248, "MEAN_MOTION_DDOT": 0}, "tle": {"line1": "1 66562U 25268F   25361.00003472 -.01953248  00000+0 -54701-1 0  9992", "line2": "2 66562  43.0004  37.7117 0001024 259.8627  14.8586 15.39390124  6027"}}, "geometry": {"type": "Point", "coordinates": [-45.34561129237795, -42.69635146281311]}}, {"type": "Feature", "properties": {"norad_id": 66563, "name": "STARLINK-35437", "group": "last-30-days", "lat": -35.09984367969343, "lon": -12.429656046204238, "alt_km": 447.7838734659754, "timestamp": "2025-12-27T04:40:44.216418+00:00", "meta": {"OBJECT_NAME": "STARLINK-35437", "OBJECT_ID": "2025-268G", "EPOCH": "2025-12-27T00:00:02.999808", "MEAN_MOTION": 15.41101043, "ECCENTRICITY": 0.00010738, "INCLINATION": 43.0004, "RA_OF_ASC_NODE": 37.6487, "ARG_OF_PERICENTER": 262.5589, "MEAN_ANOMALY": 37.5793, "EPHEMERIS_TYPE": 0, "CLASSIFICATION_TYPE": "U", "NORAD_CAT_ID": 66563, "ELEMENT_SET_NO": 999, "REV_AT_EPOCH": 607, "BSTAR": -0.053040045, "MEAN_MOTION_DOT": -0.01999671, "MEAN_MOTION_DDOT": 0}, "tle": {"line1": "1 66563U 25268G   25361.00003472 -.01999671  00000+0 -53040-1 0  9998", "line2": "2 66563  43.0004  37.6487 0001073 262.5589  37.5793 15.41101043  6079"}}, "geometry": {"type": "Point", "coordinates": [-12.429656046204238, -35.09984367969343]}}]}